#dV2023  9 24 10  0  0.00000000    1682       CTS   FIT  GFZ
## 2281  36000.00000000    30.00000000 60211 0.4166666666667
+    1   L64  0  0  0  0  0  0  0  0  0  0  0  0  0  0  0  0
+          0  0  0  0  0  0  0  0  0  0  0  0  0  0  0  0  0
+          0  0  0  0  0  0  0  0  0  0  0  0  0  0  0  0  0
+          0  0  0  0  0  0  0  0  0  0  0  0  0  0  0  0  0
+          0  0  0  0  0  0  0  0  0  0  0  0  0  0  0  0  0
++         0  0  0  0  0  0  0  0  0  0  0  0  0  0  0  0  0
++         0  0  0  0  0  0  0  0  0  0  0  0  0  0  0  0  0
++         0  0  0  0  0  0  0  0  0  0  0  0  0  0  0  0  0
++         0  0  0  0  0  0  0  0  0  0  0  0  0  0  0  0  0
++         0  0  0  0  0  0  0  0  0  0  0  0  0  0  0  0  0
%c L  cc GPS ccc cccc cccc cccc cccc ccccc ccccc ccccc ccccc
%c cc cc ccc ccc cccc cccc cccc cccc ccccc ccccc ccccc ccccc
%f  0.0000000  0.000000000  0.00000000000  0.000000000000000
%f  0.0000000  0.000000000  0.00000000000  0.000000000000000
%i    0    0    0    0      0      0      0      0         0
%i    0    0    0    0      0      0      0      0         0
/* CCCCCCCCCCCCCCCCCCCCCCCCCCCCCCCCCCCCCCCCCCCCCCCCCCCCCCCCCCCCCCCCCCCCCCCCCCCCC
/* C                             GFZ RSO-ORBIT                                 C
/* C DOI: https://doi.org/10.5880/GFZ_ORBIT/RSO/L64_G_v03                      C
/* C                                                                           C
/* C DORIS        RMS: not applicable                                          C
/* C GNSS-E Code  RMS: not applicable                                          C
/* C GNSS-E Phase RMS: not applicable                                          C
/* C GNSS-G Code  RMS:  45.552 [cm]   Obs.acc.:     13324 Obs.eli.:      1159  C
/* C GNSS-G Phase RMS:   4.217 [mm]   Obs.acc.:     13324 Obs.eli.:      1159  C
/* C SLR          RMS:   0.402 [cm]   Obs.acc.:        43 Obs.eli.:         0  C
/* C                                                                           C
/* CCCCCCCCCCCCCCCCCCCCCCCCCCCCCCCCCCCCCCCCCCCCCCCCCCCCCCCCCCCCCCCCCCCCCCCCCCCCC
*  2023  9 24 23 36  0.00000000
PL64   4581.391045  -1926.630123  -4737.942487  12601.986594
VL64  47651.822501 -21964.233258  55195.524719 999999.999999
*  2023  9 24 23 36 30.00000000
PL64   4721.654742  -1991.758678  -4569.759131  12602.447376
VL64  45848.986960 -21449.455193  56916.463087 999999.999999
*  2023  9 24 23 37  0.00000000
PL64   4856.436086  -2055.294937  -4396.506176  12602.908263
VL64  43997.272087 -20902.761691  58574.936546 999999.999999
*  2023  9 24 23 37 30.00000000
PL64   4985.591635  -2117.143707  -4218.373873  12603.368785
VL64  42098.818800 -20324.528397  60169.050974 999999.999999
*  2023  9 24 23 38  0.00000000
PL64   5108.984454  -2177.210988  -4035.558058  12603.828934
VL64  40155.822809 -19715.176725  61696.979898 999999.999999
*  2023  9 24 23 38 30.00000000
PL64   5226.484276  -2235.404114  -3848.259938  12604.289358
VL64  38170.532469 -19075.173930  63156.967171 999999.999999
*  2023  9 24 23 39  0.00000000
PL64   5337.967651  -2291.631892  -3656.685882  12604.748984
VL64  36145.246057 -18405.032964  64547.329964 999999.999999
*  2023  9 24 23 39 30.00000000
PL64   5443.318099  -2345.804731  -3461.047192  12605.208949
VL64  34082.308647 -17705.311992  65866.461096 999999.999999
*  2023  9 24 23 40  0.00000000
PL64   5542.426240  -2397.834785  -3261.559879  12605.669626
VL64  31984.109383 -16976.614037  67112.830999 999999.999999
*  2023  9 24 23 40 30.00000000
PL64   5635.189923  -2447.636084  -3058.444420  12606.130734
VL64  29853.078783 -16219.586767  68284.989797 999999.999999
*  2023  9 24 23 41  0.00000000
PL64   5721.514349  -2495.124667  -2851.925522  12606.591820
VL64  27691.686051 -15434.922299  69381.569435 999999.999999
*  2023  9 24 23 41 30.00000000
PL64   5801.312181  -2540.218715  -2642.231869  12607.052888
VL64  25502.435894 -14623.356568  70401.286272 999999.999999
*  2023  9 24 23 42  0.00000000
PL64   5874.503643  -2582.838682  -2429.595868  12607.513763
VL64  23287.864627 -13785.668008  71342.942667 999999.999999
*  2023  9 24 23 42 30.00000000
PL64   5941.016612  -2622.907419  -2214.253388  12607.974681
VL64  21050.537340 -12922.676570  72205.427566 999999.999999
*  2023  9 24 23 43  0.00000000
PL64   6000.786702  -2660.350299  -1996.443500  12608.435843
VL64  18793.045776 -12035.243525  72987.717911 999999.999999
*  2023  9 24 23 43 30.00000000
PL64   6053.757337  -2695.095339  -1776.408211  12608.896959
VL64  16518.005670 -11124.271130  73688.880836 999999.999999
*  2023  9 24 23 44  0.00000000
PL64   6099.879823  -2727.073327  -1554.392186  12609.357742
VL64  14228.053577 -10190.701613  74308.075803 999999.999999
*  2023  9 24 23 44 30.00000000
PL64   6139.113400  -2756.217932  -1330.642473  12609.818642
VL64  11925.843102  -9235.515927  74844.556373 999999.999999
*  2023  9 24 23 45  0.00000000
PL64   6171.425290  -2782.465824  -1105.408217  12610.279448
VL64   9614.040847  -8259.732756  75297.671313 999999.999999
*  2023  9 24 23 45 30.00000000
PL64   6196.790729  -2805.756785   -878.940370  12610.740288
VL64   7295.322705  -7264.407340  75666.865369 999999.999999
*  2023  9 24 23 46  0.00000000
PL64   6215.192992  -2826.033815   -651.491407  12611.201559
VL64   4972.370611  -6250.630005  75951.679797 999999.999999
*  2023  9 24 23 46 30.00000000
PL64   6226.623404  -2843.243236   -423.315035  12611.662503
VL64   2647.869558  -5219.524792  76151.753068 999999.999999
*  2023  9 24 23 47  0.00000000
PL64   6231.081345  -2857.334791   -194.665897  12612.123750
VL64    324.504034  -4172.247951  76266.821441 999999.999999
*  2023  9 24 23 47 30.00000000
PL64   6228.574245  -2868.261738     34.200719  12612.585077
VL64  -1995.044479  -3109.986815  76296.718506 999999.999999
*  2023  9 24 23 48  0.00000000
PL64   6219.117572  -2875.980944    263.029172  12613.046089
VL64  -4308.099151  -2033.958900  76241.377195 999999.999999
*  2023  9 24 23 48 30.00000000
PL64   6202.734811  -2880.452970    491.563775  12613.507302
VL64  -6611.993007   -945.409668  76100.832283 999999.999999
*  2023  9 24 23 49  0.00000000
PL64   6179.457427  -2881.642151    719.549094  12613.968317
VL64  -8904.074355    154.389372  75875.219226 999999.999999
*  2023  9 24 23 49 30.00000000
PL64   6149.324812  -2879.516679    946.730254  12614.428872
VL64 -11181.709832   1264.141621  75564.773697 999999.999999
*  2023  9 24 23 50  0.00000000
PL64   6112.384226  -2874.048667   1172.853237  12614.889468
VL64 -13442.288739   2382.527506  75169.832106 999999.999999
*  2023  9 24 23 50 30.00000000
PL64   6068.690720  -2865.214220   1397.665183  12615.349438
VL64 -15683.227580   3508.207105  74690.829667 999999.999999
*  2023  9 24 23 51  0.00000000
PL64   6018.307055  -2852.993489   1620.914682  12615.809929
VL64 -17901.972355   4639.821862  74128.297492 999999.999999
*  2023  9 24 23 51 30.00000000
PL64   5961.303605  -2837.370730   1842.352061  12616.270613
VL64 -20095.999163   5775.995051  73482.861106 999999.999999
*  2023  9 24 23 52  0.00000000
PL64   5897.758272  -2818.334355   2061.729663  12616.731398
VL64 -22262.815059   6915.331888  72755.242319 999999.999999
*  2023  9 24 23 52 30.00000000
PL64   5827.756385  -2795.876984   2278.802150  12617.192496
VL64 -24399.962686   8056.422523  71946.262496 999999.999999
*  2023  9 24 23 53  0.00000000
PL64   5751.390581  -2769.995486   2493.326794  12617.653795
VL64 -26505.027328   9197.846820  71056.841394 999999.999999
*  2023  9 24 23 53 30.00000000
PL64   5668.760673  -2740.690997   2705.063768  12618.114812
VL64 -28575.641716  10338.176863  70087.992273 999999.999999
*  2023  9 24 23 54  0.00000000
PL64   5579.973501  -2707.968954   2913.776419  12618.576340
VL64 -30609.487617  11475.977329  69040.817748 999999.999999
*  2023  9 24 23 54 30.00000000
PL64   5485.142786  -2671.839105   3119.231536  12619.038593
VL64 -32604.296061  12609.806069  67916.508525 999999.999999
*  2023  9 24 23 55  0.00000000
PL64   5384.388981  -2632.315536   3321.199612  12619.500898
VL64 -34557.849281  13738.216177  66716.343803 999999.999999
*  2023  9 24 23 55 30.00000000
PL64   5277.839110  -2589.416675   3519.455108  12619.963220
VL64 -36467.984395  14859.758746  65441.690241 999999.999999
*  2023  9 24 23 56  0.00000000
PL64   5165.626600  -2543.165299   3713.776713  12620.425181
VL64 -38332.596587  15972.985335  64093.999197 999999.999999
*  2023  9 24 23 56 30.00000000
PL64   5047.891101  -2493.588526   3903.947596  12620.886703
VL64 -40149.640780  17076.449636  62674.803934 999999.999999
*  2023  9 24 23 57  0.00000000
PL64   4924.778310  -2440.717807   4089.755643  12621.347855
VL64 -41917.132631  18168.708453  61185.717821 999999.999999
*  2023  9 24 23 57 30.00000000
PL64   4796.439782  -2384.588920   4270.993703  12621.808830
VL64 -43633.150086  19248.322760  59628.434189 999999.999999
*  2023  9 24 23 58  0.00000000
PL64   4663.032742  -2325.241948   4447.459821  12622.269759
VL64 -45295.837174  20313.860458  58004.726085 999999.999999
*  2023  9 24 23 58 30.00000000
PL64   4524.719877  -2262.721256   4618.957481  12622.730596
VL64 -46903.408424  21363.899564  56316.442635 999999.999999
*  2023  9 24 23 59  0.00000000
PL64   4381.669123  -2197.075460   4785.295820  12623.191479
VL64 -48454.150618  22397.029549  54565.504316 999999.999999
*  2023  9 24 23 59 30.00000000
PL64   4234.053445  -2128.357386   4946.289840  12623.652510
VL64 -49946.423380  23411.852439  52753.900654 999999.999999
*  2023  9 25  0  0  0.00000000
PL64   4082.050620  -2056.624036   5101.760613  12624.113705
VL64 -51378.660940  24406.985059  50883.688534 999999.999999
*  2023  9 25  0  0 30.00000000
PL64   3925.843006  -1981.936533   5251.535482 999999.999999
VL64 -52749.374131  25381.061598  48956.989133 999999.999999
EOF
